NORAD_CAT_ID,OBJECT_NAME,OBJECT_TYPE,EPOCH,MEAN_MOTION,ECCENTRICITY,INCLINATION,RA_OF_ASC_NODE,ARG_OF_PERICENTER,MEAN_ANOMALY,BSTAR,MEAN_MOTION_DOT,MEAN_MOTION_DDOT,TLE_LINE0,TLE_LINE1,TLE_LINE2,SEMIMAJOR_AXIS,PERIOD,APOGEE,PERIGEE,DECAYED
53144.0,STARLINK-4100,PAYLOAD,2024-07-27 12:28:29,15.08845597,0.0001439,53.2113,303.5025,88.0913,272.0244,-3.0484e-05,-7.73e-06,0.0,0 STARLINK-4100,1 53144U 22083N   24209.51979040 -.00000773  00000-0 -30484-4 0  9996,2 53144  53.2113 303.5025 0001439  88.0913 272.0244 15.08845597112757,6917.863,95.437,540.724,538.733,0.0
53144.0,STARLINK-4100,PAYLOAD,2024-07-27 15:39:16,15.08842838,0.0001641,53.2158,302.9088,91.8833,268.2347,7.9832e-06,-1.61e-06,0.0,0 STARLINK-4100,1 53144U 22083N   24209.65227077 -.00000161  00000-0  79832-5 0  9998,2 53144  53.2158 302.9088 0001641  91.8833 268.2347 15.08842838112145,6917.872,95.437,540.872,538.601,0.0
53144.0,STARLINK-4100,PAYLOAD,2024-07-28 13:54:39,15.08840603,0.00017,53.2184,298.7421,107.4216,252.6962,5.1899e-05,5.38e-06,0.0,0 STARLINK-4100,1 53144U 22083N   24210.57962746  .00000538  00000-0  51899-4 0  9999,2 53144  53.2184 298.7421 0001700 107.4216 252.6962 15.08840603112915,6917.879,95.438,540.92,538.568,0.0
53144.0,STARLINK-4100,PAYLOAD,2024-07-29 12:10:03,15.08838787,0.0001694,53.2181,294.5803,106.3468,253.7711,2.5818e-05,1.23e-06,0.0,0 STARLINK-4100,1 53144U 22083N   24211.50699031  .00000123  00000-0  25818-4 0  9999,2 53144  53.2181 294.5803 0001694 106.3468 253.7711 15.08838787112429,6917.884,95.438,540.921,538.577,0.0
53144.0,STARLINK-4100,PAYLOAD,2024-07-29 16:56:13,15.08842542,0.0001767,53.216,293.6895,102.2813,257.8377,6.6794e-05,7.75e-06,0.0,0 STARLINK-4100,1 53144U 22083N   24211.70570684  .00000775  00000-0  66794-4 0  9994,2 53144  53.2160 293.6895 0001767 102.2813 257.8377 15.08842542113087,6917.873,95.437,540.96,538.515,0.0
53144.0,STARLINK-4100,PAYLOAD,2024-07-30 12:00:51,15.08838447,0.0001534,53.2182,290.1217,93.4148,266.7019,1.7488e-05,-1e-07,0.0,0 STARLINK-4100,1 53144U 22083N   24212.50059272 -.00000010  00000-0  17488-4 0  9997,2 53144  53.2182 290.1217 0001534  93.4148 266.7019 15.08838447113200,6917.885,95.438,540.811,538.689,0.0
53144.0,STARLINK-4100,PAYLOAD,2024-07-31 11:51:38,15.08837199,0.000133,53.2161,285.6613,86.0446,274.0698,-4.6303e-07,-2.95e-06,0.0,0 STARLINK-4100,1 53144U 22083N   24213.49419794 -.00000295  00000-0 -46303-6 0  9991,2 53144  53.2161 285.6613 0001330  86.0446 274.0698 15.08837199112723,6917.889,95.438,540.674,538.834,0.0
53144.0,STARLINK-4100,PAYLOAD,2024-08-01 11:42:24,15.0884966,0.0001354,53.2175,281.2066,94.6167,265.498,0.00010017,1.307e-05,0.0,0 STARLINK-4100,1 53144U 22083N   24214.48778918  .00001307  00000-0  10017-3 0  9990,2 53144  53.2175 281.2066 0001354  94.6167 265.4980 15.08849660113504,6917.851,95.437,540.653,538.779,0.0
53144.0,STARLINK-4100,PAYLOAD,2024-08-01 21:14:43,15.0884817,0.0001164,53.2156,279.4138,55.5972,304.513,0.0001766,2.524e-05,0.0,0 STARLINK-4100,1 53144U 22083N   24214.88522484  .00002524  00000-0  17660-3 0  9992,2 53144  53.2156 279.4138 0001164  55.5972 304.5130 15.08848170112934,6917.855,95.437,540.526,538.915,0.0
53144.0,STARLINK-4100,PAYLOAD,2024-08-02 11:33:13,15.08835202,0.0001615,53.2179,276.7483,96.0488,264.0688,4.0679e-05,3.59e-06,0.0,0 STARLINK-4100,1 53144U 22083N   24215.48140216  .00000359  00000-0  40679-4 0  9999,2 53144  53.2179 276.7483 0001615  96.0488 264.0688 15.08835202113655,6917.895,95.438,540.877,538.643,0.0
53144.0,STARLINK-4100,PAYLOAD,2024-08-02 21:05:31,15.08838418,0.0001592,53.2177,274.9589,82.9291,277.1882,2.9605e-06,-2.41e-06,0.0,0 STARLINK-4100,1 53144U 22083N   24215.87884151 -.00000241  00000-0  29605-5 0  9993,2 53144  53.2177 274.9589 0001592  82.9291 277.1882 15.08838418113080,6917.885,95.438,540.852,538.649,0.0
53144.0,STARLINK-4100,PAYLOAD,2024-08-03 11:23:59,15.08850671,0.0001483,53.2171,272.2824,83.8552,276.2609,-3.0974e-05,-7.81e-06,0.0,0 STARLINK-4100,1 53144U 22083N   24216.47499484 -.00000781  00000-0 -30974-4 0  9991,2 53144  53.2171 272.2824 0001483  83.8552 276.2609 15.08850671113808,6917.848,95.437,540.739,538.687,0.0
53144.0,STARLINK-4100,PAYLOAD,2024-08-03 20:56:18,15.08851465,0.0001455,53.2169,270.4983,87.3395,272.7764,-5.7556e-05,-1.204e-05,0.0,0 STARLINK-4100,1 53144U 22083N   24216.87243274 -.00001204  00000-0 -57556-4 0  9995,2 53144  53.2169 270.4983 0001455  87.3395 272.7764 15.08851465113236,6917.845,95.437,540.717,538.704,0.0
53144.0,STARLINK-4100,PAYLOAD,2024-08-04 03:17:51,15.08841247,0.000166,53.2166,269.3092,79.6643,280.4536,5.3973e-05,5.71e-06,0.0,0 STARLINK-4100,1 53144U 22083N   24217.13739699  .00000571  00000-0  53973-4 0  9999,2 53144  53.2166 269.3092 0001660  79.6643 280.4536 15.08841247113903,6917.877,95.437,540.89,538.593,0.0
53144.0,STARLINK-4100,PAYLOAD,2024-08-04 12:50:09,15.08849914,0.0001484,53.2164,267.5233,89.459,270.6572,0.00013646,1.885e-05,0.0,0 STARLINK-4100,1 53144U 22083N   24217.53482931  .00001885  00000-0  13646-3 0  9998,2 53144  53.2164 267.5233 0001484  89.4590 270.6572 15.08849914113968,6917.85,95.437,540.742,538.688,0.0
53144.0,STARLINK-4100,PAYLOAD,2024-08-04 20:47:05,15.08846641,0.0001557,53.2168,266.0377,83.8148,276.3022,0.00013916,1.928e-05,0.0,0 STARLINK-4100,1 53144U 22083N   24217.86603163  .00001928  00000-0  13916-3 0  9994,2 53144  53.2168 266.0377 0001557  83.8148 276.3022 15.08846641113386,6917.86,95.437,540.802,538.648,0.0
53144.0,STARLINK-4100,PAYLOAD,2024-08-05 09:30:10,15.08839849,0.000111,53.2158,263.6547,97.1961,262.9157,0.00019018,2.74e-05,0.0,0 STARLINK-4100,1 53144U 22083N   24218.39595190  .00002740  00000-0  19018-3 0  9995,2 53144  53.2158 263.6547 0001110  97.1961 262.9157 15.08839849114094,6917.881,95.438,540.514,538.978,0.0
53144.0,STARLINK-4100,PAYLOAD,2024-08-06 09:21:00,15.08806113,0.0001439,53.2164,259.1971,86.5374,273.5783,-0.00020542,-3.553e-05,0.0,0 STARLINK-4100,1 53144U 22083N   24219.38959391 -.00003553  00000-0 -20542-3 0  9991,2 53144  53.2164 259.1971 0001439  86.5374 273.5783 15.08806113114244,6917.984,95.44,540.844,538.853,0.0
53144.0,STARLINK-4100,PAYLOAD,2024-08-07 02:50:14,15.08830369,0.000132,53.2165,255.9243,97.2224,262.8918,-1.7325e-05,-5.64e-06,0.0,0 STARLINK-4100,1 53144U 22083N   24220.11821912 -.00000564  00000-0 -17325-4 0  9996,2 53144  53.2165 255.9243 0001320  97.2224 262.8918 15.08830369114356,6917.91,95.438,540.688,538.862,0.0
53144.0,STARLINK-4100,PAYLOAD,2024-08-07 07:36:22,15.08839372,0.0001572,53.2171,255.0416,75.9923,284.1244,0.00011763,1.585e-05,0.0,0 STARLINK-4100,1 53144U 22083N   24220.31693192  .00001585  00000-0  11763-3 0  9996,2 53144  53.2171 255.0416 0001572  75.9923 284.1244 15.08839372114389,6917.882,95.438,540.835,538.66,0.0
53144.0,STARLINK-4100,PAYLOAD,2024-08-08 07:27:09,15.08848776,0.0001485,53.2174,250.5735,88.446,271.6702,0.00050688,7.79e-05,0.0,0 STARLINK-4100,1 53144U 22083N   24221.31052095  .00007790  00000-0  50688-3 0  9991,2 53144  53.2174 250.5735 0001485  88.4460 271.6702 15.08848776113909,6917.854,95.437,540.746,538.691,0.0
53144.0,STARLINK-4100,PAYLOAD,2024-08-09 00:56:23,15.08857447,0.0001483,53.2155,247.3012,83.7309,276.3852,7.6276e-05,9.27e-06,0.0,0 STARLINK-4100,1 53144U 22083N   24222.03916456  .00000927  00000-0  76276-4 0  9998,2 53144  53.2155 247.3012 0001483  83.7309 276.3852 15.08857447114643,6917.827,95.436,540.718,538.666,0.0
53144.0,STARLINK-4100,PAYLOAD,2024-08-09 08:53:19,15.08854475,0.0001384,53.2144,245.8136,77.3535,282.7612,-2.851e-05,-7.42e-06,0.0,0 STARLINK-4100,1 53144U 22083N   24222.37035960 -.00000742  00000-0 -28510-4 0  9992,2 53144  53.2144 245.8136 0001384  77.3535 282.7612 15.08854475114060,6917.836,95.437,540.659,538.744,0.0
53144.0,STARLINK-4100,PAYLOAD,2024-08-09 18:25:37,15.08845597,0.0001274,53.2141,244.0304,79.9813,280.1322,-0.00016354,-2.89e-05,0.0,0 STARLINK-4100,1 53144U 22083N   24222.76780080 -.00002890  00000-0 -16354-3 0  9993,2 53144  53.2141 244.0304 0001274  79.9813 280.1322 15.08845597114751,6917.863,95.437,540.61,538.847,0.0
53144.0,STARLINK-4100,PAYLOAD,2024-08-10 10:19:29,15.08841315,0.0001143,53.2172,241.0609,71.5946,288.517,-4.2299e-05,-9.61e-06,0.0,0 STARLINK-4100,1 53144U 22083N   24223.43020823 -.00000961  00000-0 -42299-4 0  9995,2 53144  53.2172 241.0609 0001143  71.5946 288.5170 15.08841315114858,6917.876,95.437,540.532,538.951,0.0
53144.0,STARLINK-4100,PAYLOAD,2024-08-11 18:07:12,15.08848469,0.0001639,53.2176,235.108,84.2381,275.8798,-4.8949e-05,-1.067e-05,0.0,0 STARLINK-4100,1 53144U 22083N   24224.75500443 -.00001067  00000-0 -48949-4 0  9998,2 53144  53.2176 235.1080 0001639  84.2381 275.8798 15.08848469115058,6917.855,95.437,540.853,538.586,0.0
53144.0,STARLINK-4100,PAYLOAD,2024-08-12 06:50:18,15.0883326,0.0001351,53.2149,232.7263,100.8871,259.2273,0.00046985,7.196e-05,0.0,0 STARLINK-4100,1 53144U 22083N   24225.28493214  .00007196  00000-0  46985-3 0  9998,2 53144  53.2149 232.7263 0001351 100.8871 259.2273 15.08833260115130,6917.901,95.438,540.701,538.831,0.0
53144.0,STARLINK-4100,PAYLOAD,2024-08-12 17:57:59,15.08854205,0.0001426,53.2153,230.6502,91.7373,268.3782,0.00030496,4.571e-05,0.0,0 STARLINK-4100,1 53144U 22083N   24225.74860029  .00004571  00000-0  30496-3 0  9995,2 53144  53.2153 230.6502 0001426  91.7373 268.3782 15.08854205115202,6917.837,95.437,540.688,538.715,0.0
53144.0,STARLINK-4100,PAYLOAD,2024-08-13 06:41:03,15.08855256,0.0001722,53.2163,228.2686,96.2788,263.8401,0.00019339,2.792e-05,0.0,0 STARLINK-4100,1 53144U 22083N   24226.27851679  .00002792  00000-0  19339-3 0  9991,2 53144  53.2163 228.2686 0001722  96.2788 263.8401 15.08855256114651,6917.834,95.437,540.89,538.508,0.0
53144.0,STARLINK-4100,PAYLOAD,2024-08-13 17:48:46,15.08838462,0.0001643,53.215,226.1852,101.0186,259.0991,2.1462e-05,5.4e-07,0.0,0 STARLINK-4100,1 53144U 22083N   24226.74220634  .00000054  00000-0  21462-4 0  9994,2 53144  53.2150 226.1852 0001643 101.0186 259.0991 15.08838462115357,6917.885,95.438,540.887,538.613,0.0
